{
  "links" : {
    "next" : "https://api.nasa.gov/neo/rest/v1/feed?start_date=2000-01-16&end_date=2000-01-16&detailed=true&api_key=t0TVs3DtDT2H8Oy2Zy8m2eVrNsAVKAexjcZXUckd",
    "prev" : "https://api.nasa.gov/neo/rest/v1/feed?start_date=2000-01-14&end_date=2000-01-14&detailed=true&api_key=t0TVs3DtDT2H8Oy2Zy8m2eVrNsAVKAexjcZXUckd",
    "self" : "https://api.nasa.gov/neo/rest/v1/feed?start_date=2000-01-15&end_date=2000-01-15&detailed=true&api_key=t0TVs3DtDT2H8Oy2Zy8m2eVrNsAVKAexjcZXUckd"
  },
  "element_count" : 5,
  "near_earth_objects" : {
    "2000-01-15" : [ {
      "links" : {
        "self" : "https://api.nasa.gov/neo/rest/v1/neo/3468662?api_key=t0TVs3DtDT2H8Oy2Zy8m2eVrNsAVKAexjcZXUckd"
      },
      "neo_reference_id" : "3468662",
      "name" : "(2009 SB170)",
      "nasa_jpl_url" : "http://ssd.jpl.nasa.gov/sbdb.cgi?sstr=3468662",
      "absolute_magnitude_h" : 20.8,
      "estimated_diameter" : {
        "kilometers" : {
          "estimated_diameter_min" : 0.1838886721,
          "estimated_diameter_max" : 0.411187571
        },
        "meters" : {
          "estimated_diameter_min" : 183.8886720703,
          "estimated_diameter_max" : 411.1875710413
        },
        "miles" : {
          "estimated_diameter_min" : 0.1142630881,
          "estimated_diameter_max" : 0.2555000322
        },
        "feet" : {
          "estimated_diameter_min" : 603.309310875,
          "estimated_diameter_max" : 1349.040630575
        }
      },
      "is_potentially_hazardous_asteroid" : false,
      "close_approach_data" : [ {
        "close_approach_date" : "2000-01-15",
        "epoch_date_close_approach" : 947923200000,
        "relative_velocity" : {
          "kilometers_per_second" : "33.9423615003",
          "kilometers_per_hour" : "122192.5014010494",
          "miles_per_hour" : "75925.668440002"
        },
        "miss_distance" : {
          "astronomical" : "0.4958011827",
          "lunar" : "192.8666534424",
          "kilometers" : "74170800",
          "miles" : "46087600"
        },
        "orbiting_body" : "Earth"
      } ],
      "orbital_data" : {
        "orbit_id" : "11",
        "orbit_determination_date" : "2017-04-06 08:59:46",
        "orbit_uncertainty" : "1",
        "minimum_orbit_intersection" : ".100775",
        "jupiter_tisserand_invariant" : "4.459",
        "epoch_osculation" : "2458000.5",
        "eccentricity" : ".7422720872832735",
        "semi_major_axis" : "1.345597044683845",
        "inclination" : "29.77096937341999",
        "ascending_node_longitude" : "189.8009669795238",
        "orbital_period" : "570.1261533286778",
        "perihelion_distance" : ".346797917684163",
        "perihelion_argument" : "44.9818771147273",
        "aphelion_distance" : "2.344396171683526",
        "perihelion_time" : "2457863.206795547526",
        "mean_anomaly" : "86.69231066549021",
        "mean_motion" : ".6314391962167362",
        "equinox" : "J2000"
      }
    }, {
      "links" : {
        "self" : "https://api.nasa.gov/neo/rest/v1/neo/3591722?api_key=t0TVs3DtDT2H8Oy2Zy8m2eVrNsAVKAexjcZXUckd"
      },
      "neo_reference_id" : "3591722",
      "name" : "(2011 YJ28)",
      "nasa_jpl_url" : "http://ssd.jpl.nasa.gov/sbdb.cgi?sstr=3591722",
      "absolute_magnitude_h" : 21.3,
      "estimated_diameter" : {
        "kilometers" : {
          "estimated_diameter_min" : 0.1460679643,
          "estimated_diameter_max" : 0.3266178974
        },
        "meters" : {
          "estimated_diameter_min" : 146.0679642714,
          "estimated_diameter_max" : 326.6178974458
        },
        "miles" : {
          "estimated_diameter_min" : 0.090762397,
          "estimated_diameter_max" : 0.2029508896
        },
        "feet" : {
          "estimated_diameter_min" : 479.2256199,
          "estimated_diameter_max" : 1071.581062656
        }
      },
      "is_potentially_hazardous_asteroid" : true,
      "close_approach_data" : [ {
        "close_approach_date" : "2000-01-15",
        "epoch_date_close_approach" : 947923200000,
        "relative_velocity" : {
          "kilometers_per_second" : "14.5327564686",
          "kilometers_per_hour" : "52317.9232867944",
          "miles_per_hour" : "32508.3229445084"
        },
        "miss_distance" : {
          "astronomical" : "0.1551609441",
          "lunar" : "60.3576087952",
          "kilometers" : "23211748",
          "miles" : "14423111"
        },
        "orbiting_body" : "Earth"
      } ],
      "orbital_data" : {
        "orbit_id" : "18",
        "orbit_determination_date" : "2017-04-06 08:51:40",
        "orbit_uncertainty" : "6",
        "minimum_orbit_intersection" : ".0196999",
        "jupiter_tisserand_invariant" : "5.710",
        "epoch_osculation" : "2458000.5",
        "eccentricity" : ".09258970181258734",
        "semi_major_axis" : "1.059755265613352",
        "inclination" : "27.07095324632146",
        "ascending_node_longitude" : "290.1176283125167",
        "orbital_period" : "398.4802503373492",
        "perihelion_distance" : ".9616328415758925",
        "perihelion_argument" : "306.0184645250985",
        "aphelion_distance" : "1.157877689650812",
        "perihelion_time" : "2458054.339401818089",
        "mean_anomaly" : "311.3597358009504",
        "mean_motion" : ".9034324780092058",
        "equinox" : "J2000"
      }
    } ]
  }
}